STARLINK-35395          
1 66014U 25232K   25302.50003471  .00008386  00000+0  61583-4 0  9994
2 66014  53.1573 357.2808 0001226  73.3625 287.5251 15.74157316  2432
STARLINK-34622          
1 66015U 25232L   25302.50003471  .00044067  00000+0  30411-3 0  9996
2 66015  53.1575 357.2649 0001193  72.4243 296.1156 15.74150198  2337
STARLINK-35243          
1 66016U 25232M   25302.50003471  .00041399  00000+0  28607-3 0  9996
2 66016  53.1575 357.2687 0001258  95.1038 271.5297 15.74148500  2445
STARLINK-35398          
1 66017U 25232N   25302.50003471  .00003715  00000+0  29670-4 0  9999
2 66017  53.1577 357.2571 0001076  88.9534 283.4165 15.74171304  2364
STARLINK-35376          
1 66018U 25232P   25302.50003471  .00043412  00000+0  29960-3 0  9999
2 66018  53.1576 357.2608 0001790  76.4854 293.9642 15.74155803  2446
STARLINK-35382          
1 66019U 25232Q   25302.50003471  .00143580  00000+0  97176-3 0  9991
2 66019  53.1578 357.2725 0001261  94.2357 270.4732 15.74099653  2448
STARLINK-35430          
1 66020U 25232R   25302.50003471 -.00063764  00000+0 -43417-3 0  9999
2 66020  53.1571 357.2484 0000917  78.1329 298.0668 15.74199802  2432
STARLINK-35432          
1 66021U 25232S   25302.50003471  .00008597  00000+0  62986-4 0  9994
2 66021  53.1571 357.2520 0001109  87.5306 286.7569 15.74168678  2360
STARLINK-35340          
1 66022U 25232T   25302.50003471  .00012915  00000+0  92438-4 0  9999
2 66022  53.1577 357.2447 0001248  78.9958 299.1289 15.74165421  2434
STARLINK-35394          
1 66023U 25232U   25302.50003471  .00038501  00000+0  26644-3 0  9994
2 66023  53.1575 357.2406 0001034  80.2528 299.7954 15.74148501  2435
STARLINK-35410          
1 66024U 25232V   25302.50003471 -.00004438  00000+0 -26040-4 0  9990
2 66024  53.1572 357.2328 0001113  73.6015 310.2669 15.74175903  2439
STARLINK-35280          
1 66025U 25232W   25302.50003471  .00008258  00000+0  60675-4 0  9995
2 66025  53.1574 357.2363 0001124  60.1370 321.8164 15.74168946  2378
